[{"OBJECT_NAME":"STARLINK-1742","OBJECT_ID":"2020-062BD","EPOCH":"2025-07-29T11:18:33.535008","MEAN_MOTION":15.24418662,"ECCENTRICITY":0.0007574,"INCLINATION":53.0466,"RA_OF_ASC_NODE":241.5576,"ARG_OF_PERICENTER":65.0692,"MEAN_ANOMALY":295.1091,"EPHEMERIS_TYPE":0,"CLASSIFICATION_TYPE":"U","NORAD_CAT_ID":46376,"ELEMENT_SET_NO":999,"REV_AT_EPOCH":27164,"BSTAR":0.0016802,"MEAN_MOTION_DOT":0.00041671,"MEAN_MOTION_DDOT":0},{"OBJECT_NAME":"STARLINK-1769","OBJECT_ID":"2020-062BK","EPOCH":"2025-07-28T10:34:51.833280","MEAN_MOTION":15.0639305,"ECCENTRICITY":0.0001241,"INCLINATION":53.0533,"RA_OF_ASC_NODE":258.3138,"ARG_OF_PERICENTER":90.1797,"MEAN_ANOMALY":269.9334,"EPHEMERIS_TYPE":0,"CLASSIFICATION_TYPE":"U","NORAD_CAT_ID":46382,"ELEMENT_SET_NO":999,"REV_AT_EPOCH":27114,"BSTAR":-0.0001249,"MEAN_MOTION_DOT":-2.141e-5,"MEAN_MOTION_DDOT":0},{"OBJECT_NAME":"STARLINK-1770","OBJECT_ID":"2020-062BL","EPOCH":"2025-07-29T12:50:52.917216","MEAN_MOTION":15.2619071,"ECCENTRICITY":0.0002382,"INCLINATION":53.055,"RA_OF_ASC_NODE":294.6998,"ARG_OF_PERICENTER":343.4191,"MEAN_ANOMALY":16.6728,"EPHEMERIS_TYPE":0,"CLASSIFICATION_TYPE":"U","NORAD_CAT_ID":46383,"ELEMENT_SET_NO":999,"REV_AT_EPOCH":27090,"BSTAR":0.0015581,"MEAN_MOTION_DOT":0.0004071,"MEAN_MOTION_DDOT":0},{"OBJECT_NAME":"STARLINK-1771","OBJECT_ID":"2020-062BM","EPOCH":"2025-07-29T11:49:34.755168","MEAN_MOTION":15.06391081,"ECCENTRICITY":0.0001282,"INCLINATION":53.0553,"RA_OF_ASC_NODE":298.5919,"ARG_OF_PERICENTER":96.7927,"MEAN_ANOMALY":263.3208,"EPHEMERIS_TYPE":0,"CLASSIFICATION_TYPE":"U","NORAD_CAT_ID":46384,"ELEMENT_SET_NO":999,"REV_AT_EPOCH":27084,"BSTAR":-2.2075e-5,"MEAN_MOTION_DOT":-6.1e-6,"MEAN_MOTION_DDOT":0},{"OBJECT_NAME":"STARLINK-1648","OBJECT_ID":"2020-070B","EPOCH":"2025-07-28T20:10:07.039200","MEAN_MOTION":15.06397584,"ECCENTRICITY":0.0001377,"INCLINATION":53.0536,"RA_OF_ASC_NODE":101.5188,"ARG_OF_PERICENTER":64.2988,"MEAN_ANOMALY":295.8143,"EPHEMERIS_TYPE":0,"CLASSIFICATION_TYPE":"U","NORAD_CAT_ID":46533,"ELEMENT_SET_NO":999,"REV_AT_EPOCH":26578,"BSTAR":0.00012513,"MEAN_MOTION_DOT":1.583e-5,"MEAN_MOTION_DDOT":0},{"OBJECT_NAME":"STARLINK-1663","OBJECT_ID":"2020-070D","EPOCH":"2025-07-29T01:49:47.919648","MEAN_MOTION":15.06406375,"ECCENTRICITY":0.0001255,"INCLINATION":53.054,"RA_OF_ASC_NODE":100.459,"ARG_OF_PERICENTER":99.4667,"MEAN_ANOMALY":260.6464,"EPHEMERIS_TYPE":0,"CLASSIFICATION_TYPE":"U","NORAD_CAT_ID":46535,"ELEMENT_SET_NO":999,"REV_AT_EPOCH":26581,"BSTAR":0.00049541,"MEAN_MOTION_DOT":7.107e-5,"MEAN_MOTION_DDOT":0},{"OBJECT_NAME":"STARLINK-1672","OBJECT_ID":"2020-070F","EPOCH":"2025-07-28T23:15:52.715232","MEAN_MOTION":15.06403192,"ECCENTRICITY":0.0001521,"INCLINATION":53.0569,"RA_OF_ASC_NODE":100.9406,"ARG_OF_PERICENTER":91.381,"MEAN_ANOMALY":268.7353,"EPHEMERIS_TYPE":0,"CLASSIFICATION_TYPE":"U","NORAD_CAT_ID":46537,"ELEMENT_SET_NO":999,"REV_AT_EPOCH":26549,"BSTAR":1.1188e-5,"MEAN_MOTION_DOT":-1.15e-6,"MEAN_MOTION_DDOT":0},{"OBJECT_NAME":"STARLINK-1678","OBJECT_ID":"2020-070G","EPOCH":"2025-07-29T14:00:01.999872","MEAN_MOTION":15.26160632,"ECCENTRICITY":0.0001078,"INCLINATION":53.0535,"RA_OF_ASC_NODE":97.166,"ARG_OF_PERICENTER":81.4387,"MEAN_ANOMALY":295.5416,"EPHEMERIS_TYPE":0,"CLASSIFICATION_TYPE":"U","NORAD_CAT_ID":46538,"ELEMENT_SET_NO":999,"REV_AT_EPOCH":26559,"BSTAR":0.039551,"MEAN_MOTION_DOT":0.01121203,"MEAN_MOTION_DDOT":0},{"OBJECT_NAME":"STARLINK-1687","OBJECT_ID":"2020-070K","EPOCH":"2025-07-28T20:39:17.812512","MEAN_MOTION":15.06406666,"ECCENTRICITY":0.0001446,"INCLINATION":53.0529,"RA_OF_ASC_NODE":81.4263,"ARG_OF_PERICENTER":90.607,"MEAN_ANOMALY":269.5084,"EPHEMERIS_TYPE":0,"CLASSIFICATION_TYPE":"U","NORAD_CAT_ID":46541,"ELEMENT_SET_NO":999,"REV_AT_EPOCH":26604,"BSTAR":0.00028811,"MEAN_MOTION_DOT":4.013e-5,"MEAN_MOTION_DDOT":0},{"OBJECT_NAME":"STARLINK-1692","OBJECT_ID":"2020-070L","EPOCH":"2025-07-29T07:36:14.874048","MEAN_MOTION":15.39246654,"ECCENTRICITY":0.0003817,"INCLINATION":53.0386,"RA_OF_ASC_NODE":74.5754,"ARG_OF_PERICENTER":192.9509,"MEAN_ANOMALY":167.1396,"EPHEMERIS_TYPE":0,"CLASSIFICATION_TYPE":"U","NORAD_CAT_ID":46542,"ELEMENT_SET_NO":999,"REV_AT_EPOCH":26619,"BSTAR":0.002506,"MEAN_MOTION_DOT":0.0009995,"MEAN_MOTION_DDOT":0},{"OBJECT_NAME":"STARLINK-1693","OBJECT_ID":"2020-070M","EPOCH":"2025-07-29T06:00:02.000160","MEAN_MOTION":15.90894456,"ECCENTRICITY":0.0008045,"INCLINATION":53.0382,"RA_OF_ASC_NODE":22.6905,"ARG_OF_PERICENTER":254.8232,"MEAN_ANOMALY":29.0745,"EPHEMERIS_TYPE":0,"CLASSIFICATION_TYPE":"U","NORAD_CAT_ID":46543,"ELEMENT_SET_NO":999,"REV_AT_EPOCH":26693,"BSTAR":0.0017394,"MEAN_MOTION_DOT":0.00556149,"MEAN_MOTION_DDOT":0.00013094},{"OBJECT_NAME":"STARLINK-1700","OBJECT_ID":"2020-070T","EPOCH":"2025-07-29T08:51:26.740800","MEAN_MOTION":15.33320842,"ECCENTRICITY":0.0003111,"INCLINATION":53.0505,"RA_OF_ASC_NODE":77.7181,"ARG_OF_PERICENTER":120.7428,"MEAN_ANOMALY":239.3879,"EPHEMERIS_TYPE":0,"CLASSIFICATION_TYPE":"U","NORAD_CAT_ID":46549,"ELEMENT_SET_NO":999,"REV_AT_EPOCH":26585,"BSTAR":0.0025091,"MEAN_MOTION_DOT":0.00082473,"MEAN_MOTION_DDOT":0},{"OBJECT_NAME":"STARLINK-1664","OBJECT_ID":"2020-070X","EPOCH":"2025-07-28T20:19:23.622816","MEAN_MOTION":15.06401456,"ECCENTRICITY":0.0001622,"INCLINATION":53.0541,"RA_OF_ASC_NODE":71.4977,"ARG_OF_PERICENTER":101.1707,"MEAN_ANOMALY":258.9465,"EPHEMERIS_TYPE":0,"CLASSIFICATION_TYPE":"U","NORAD_CAT_ID":46553,"ELEMENT_SET_NO":999,"REV_AT_EPOCH":26619,"BSTAR":-0.00017604,"MEAN_MOTION_DOT":-2.903e-5,"MEAN_MOTION_DDOT":0},{"OBJECT_NAME":"STARLINK-1676","OBJECT_ID":"2020-070AA","EPOCH":"2025-07-28T22:59:57.809472","MEAN_MOTION":15.06401342,"ECCENTRICITY":0.0001459,"INCLINATION":53.0543,"RA_OF_ASC_NODE":100.9933,"ARG_OF_PERICENTER":102.2235,"MEAN_ANOMALY":257.8917,"EPHEMERIS_TYPE":0,"CLASSIFICATION_TYPE":"U","NORAD_CAT_ID":46556,"ELEMENT_SET_NO":999,"REV_AT_EPOCH":26580,"BSTAR":0.00020192,"MEAN_MOTION_DOT":2.727e-5,"MEAN_MOTION_DDOT":0},{"OBJECT_NAME":"STARLINK-1679","OBJECT_ID":"2020-070AB","EPOCH":"2025-07-29T01:47:40.077024","MEAN_MOTION":15.06407544,"ECCENTRICITY":0.0001476,"INCLINATION":53.0536,"RA_OF_ASC_NODE":84.8387,"ARG_OF_PERICENTER":85.4817,"MEAN_ANOMALY":274.634,"EPHEMERIS_TYPE":0,"CLASSIFICATION_TYPE":"U","NORAD_CAT_ID":46557,"ELEMENT_SET_NO":999,"REV_AT_EPOCH":26603,"BSTAR":0.00028496,"MEAN_MOTION_DOT":3.966e-5,"MEAN_MOTION_DDOT":0},{"OBJECT_NAME":"STARLINK-1680","OBJECT_ID":"2020-070AC","EPOCH":"2025-07-29T08:11:17.562336","MEAN_MOTION":15.06402556,"ECCENTRICITY":0.0001387,"INCLINATION":53.0544,"RA_OF_ASC_NODE":84.2706,"ARG_OF_PERICENTER":87.117,"MEAN_ANOMALY":272.9978,"EPHEMERIS_TYPE":0,"CLASSIFICATION_TYPE":"U","NORAD_CAT_ID":46558,"ELEMENT_SET_NO":999,"REV_AT_EPOCH":26606,"BSTAR":0.00012342,"MEAN_MOTION_DOT":1.557e-5,"MEAN_MOTION_DDOT":0}]
