STARLINK-1742           
1 46376U 20062BD  25210.47122147  .00041671  00000+0  16802-2 0  9991
2 46376  53.0466 241.5576 0007574  65.0692 295.1091 15.24418662271649
STARLINK-1769           
1 46382U 20062BK  25209.44087770 -.00002141  00000+0 -12490-3 0  9996
2 46382  53.0533 258.3138 0001241  90.1797 269.9334 15.06393050271148
STARLINK-1770           
1 46383U 20062BL  25210.53533469  .00040710  00000+0  15581-2 0  9995
2 46383  53.0550 294.6998 0002382 343.4191  16.6728 15.26190710270901
STARLINK-1771           
1 46384U 20062BM  25210.49276337 -.00000610  00000+0 -22075-4 0  9994
2 46384  53.0553 298.5919 0001282  96.7927 263.3208 15.06391081270843
STARLINK-1648           
1 46533U 20070B   25209.84035925  .00001583  00000+0  12513-3 0  9995
2 46533  53.0536 101.5188 0001377  64.2988 295.8143 15.06397584265782
STARLINK-1663           
1 46535U 20070D   25210.07624907  .00007107  00000+0  49541-3 0  9997
2 46535  53.0540 100.4590 0001255  99.4667 260.6464 15.06406375265812
STARLINK-1672           
1 46537U 20070F   25209.96936013 -.00000115  00000+0  11188-4 0  9999
2 46537  53.0569 100.9406 0001521  91.3810 268.7353 15.06403192265497
STARLINK-1678           
1 46538U 20070G   25210.58335648  .01121203  00000+0  39551-1 0  9990
2 46538  53.0535  97.1660 0001078  81.4387 295.5416 15.26160632265596
STARLINK-1687           
1 46541U 20070K   25209.86062283  .00004013  00000+0  28811-3 0  9992
2 46541  53.0529  81.4263 0001446  90.6070 269.5084 15.06406666266049
STARLINK-1692           
1 46542U 20070L   25210.31683882  .00099950  00000+0  25060-2 0  9995
2 46542  53.0386  74.5754 0003817 192.9509 167.1396 15.39246654266196
STARLINK-1693           
1 46543U 20070M   25210.25002315  .00556149  13094-3  17394-2 0  9995
2 46543  53.0382  22.6905 0008045 254.8232  29.0745 15.90894456266936
STARLINK-1700           
1 46549U 20070T   25210.36905950  .00082473  00000+0  25091-2 0  9996
2 46549  53.0505  77.7181 0003111 120.7428 239.3879 15.33320842265857
STARLINK-1664           
1 46553U 20070X   25209.84680119 -.00002903  00000+0 -17604-3 0  9993
2 46553  53.0541  71.4977 0001622 101.1707 258.9465 15.06401456266191
STARLINK-1676           
1 46556U 20070AA  25209.95830798  .00002727  00000+0  20192-3 0  9996
2 46556  53.0543 100.9933 0001459 102.2235 257.8917 15.06401342265803
STARLINK-1679           
1 46557U 20070AB  25210.07476941  .00003966  00000+0  28496-3 0  9999
2 46557  53.0536  84.8387 0001476  85.4817 274.6340 15.06407544266039
STARLINK-1680           
1 46558U 20070AC  25210.34117549  .00001557  00000+0  12342-3 0  9993
2 46558  53.0544  84.2706 0001387  87.1170 272.9978 15.06402556266069
